STARLINK-31749          
1 59631U 24082A   26068.21775102 -.00001582  00000+0 -47966-4 0  9990
2 59631  43.0051 142.1439 0001315 265.9053  94.1648 15.27576194104940
LIME                    
1 62648U 25009AR  26068.73906781  .00013254  00000+0  47723-3 0  9995
2 62648  97.3985 151.4831 0001635  35.9029 324.2320 15.28703313 63766
